GAOFEN-1 02             
1 43259U 18031A   26072.67387638  .00000581  00000+0  90900-4 0  9996
2 43259  98.0637 135.4203 0002195 336.3176  23.7932 14.76449151428600
GAOFEN-1 03             
1 43260U 18031B   26073.60077880  .00001015  00000+0  15335-3 0  9998
2 43260  98.0625 136.2142 0003187  38.4414 321.7022 14.76429844428739
GAOFEN-1 04             
1 43262U 18031D   26073.64430360  .00000717  00000+0  11056-3 0  9994
2 43262  98.0639 136.4372 0001838  74.7717 285.3696 14.76446901428738
SENTINEL-3B             
1 43437U 18039A   26073.58443152  .00000138  00000+0  75245-4 0  9990
2 43437  98.6219 142.4468 0001154 126.1087 234.0200 14.26738344410630
GAOFEN-5 01             
1 43461U 18043A   26073.52235095  .00000562  00000+0  12586-3 0  9990
2 43461  98.4472  43.1760 0002444  43.3314 316.8077 14.60529694417872
GAOFEN-6                
1 43484U 18048A   26073.60736435  .00001131  00000+0  16874-3 0  9990
2 43484  97.7864 139.7144 0013428 119.9583 240.2962 14.76606610419432
GAOFEN-11 01            
1 43585U 18063A   26073.63839784  .00022159  00000+0  36352-3 0  9999
2 43585  97.1405 140.9309 0003069 345.2037  14.9126 15.52446316425664
ICESAT-2                
1 43613U 18070A   26073.60327276  .00004223  00000+0  15343-3 0  9993
2 43613  91.9991 265.4908 0003987 110.6179 249.5498 15.28249142418016
HYSIS                   
1 43719U 18096A   26073.60844074  .00001528  00000+0  21555-3 0  9995
2 43719  97.9933 141.0596 0001834  94.9623 265.1797 14.78672689393449
KAZSTSAT                
1 43783U 18099AB  26073.55660707  .00001452  00000+0  12236-3 0  9994
2 43783  97.4386 109.7310 0005862 355.8548   4.2626 14.99636077397128
SAUDISAT 5A             
1 43831U 18102A   26073.63883189  .00008400  00000+0  31898-3 0  9998
2 43831  97.3184 137.0609 0011516 107.5652 252.6846 15.27010816401244
SAUDISAT 5B             
1 43833U 18102C   26073.60962112  .00008018  00000+0  30174-3 0  9992
2 43833  97.3281 139.9328 0012221 109.7271 250.5288 15.27315765401358
GAOFEN-10R              
1 44622U 19066A   26073.62344059  .00001870  00000+0  23581-3 0  9998
2 44622  98.0403  26.5798 0008287  92.9506 267.2656 14.83174100348364
CARTOSAT-3              
1 44804U 19081A   26073.64291351  .00008323  00000+0  39732-3 0  9990
2 44804  97.4418 136.9792 0013320 121.8928 238.3604 15.19230751349110
GAOFEN-12 01            
1 44819U 19082A   26073.58921708  .00000615  00000+0  87250-4 0  9991
2 44819  97.8139  82.4585 0001557  53.5492 306.5864 14.80372276340091
CSG-1                   
1 44873U 19092A   26073.60410878  .00000716  00000+0  96498-4 0  9992
2 44873  97.8870 258.5709 0001380  85.3334 274.8037 14.82156489337463
NEMO-HD                 
1 46277U 20061F   26073.61486125  .00014366  00000+0  33175-3 0  9997
2 46277  97.2040 136.6058 0002166  73.3234 286.8252 15.42630255307394
