[{"OBJECT_NAME":"GAOFEN-1 02","OBJECT_ID":"2018-031A","EPOCH":"2026-03-13T16:10:22.919232","MEAN_MOTION":14.76449151,"ECCENTRICITY":0.00021951,"INCLINATION":98.0637,"RA_OF_ASC_NODE":135.4203,"ARG_OF_PERICENTER":336.3176,"MEAN_ANOMALY":23.7932,"EPHEMERIS_TYPE":0,"CLASSIFICATION_TYPE":"U","NORAD_CAT_ID":43259,"ELEMENT_SET_NO":999,"REV_AT_EPOCH":42860,"BSTAR":9.0900211e-5,"MEAN_MOTION_DOT":5.81e-6,"MEAN_MOTION_DDOT":0},{"OBJECT_NAME":"GAOFEN-1 03","OBJECT_ID":"2018-031B","EPOCH":"2026-03-14T14:25:07.288320","MEAN_MOTION":14.76429844,"ECCENTRICITY":0.00031872,"INCLINATION":98.0625,"RA_OF_ASC_NODE":136.2142,"ARG_OF_PERICENTER":38.4414,"MEAN_ANOMALY":321.7022,"EPHEMERIS_TYPE":0,"CLASSIFICATION_TYPE":"U","NORAD_CAT_ID":43260,"ELEMENT_SET_NO":999,"REV_AT_EPOCH":42873,"BSTAR":0.00015335158,"MEAN_MOTION_DOT":1.015e-5,"MEAN_MOTION_DDOT":0},{"OBJECT_NAME":"GAOFEN-1 04","OBJECT_ID":"2018-031D","EPOCH":"2026-03-14T15:27:47.831040","MEAN_MOTION":14.76446901,"ECCENTRICITY":0.00018389,"INCLINATION":98.0639,"RA_OF_ASC_NODE":136.4372,"ARG_OF_PERICENTER":74.7717,"MEAN_ANOMALY":285.3696,"EPHEMERIS_TYPE":0,"CLASSIFICATION_TYPE":"U","NORAD_CAT_ID":43262,"ELEMENT_SET_NO":999,"REV_AT_EPOCH":42873,"BSTAR":0.0001105551,"MEAN_MOTION_DOT":7.17e-6,"MEAN_MOTION_DDOT":0},{"OBJECT_NAME":"SENTINEL-3B","OBJECT_ID":"2018-039A","EPOCH":"2026-03-14T14:01:34.883328","MEAN_MOTION":14.26738344,"ECCENTRICITY":0.00011544,"INCLINATION":98.6219,"RA_OF_ASC_NODE":142.4468,"ARG_OF_PERICENTER":126.1087,"MEAN_ANOMALY":234.02,"EPHEMERIS_TYPE":0,"CLASSIFICATION_TYPE":"U","NORAD_CAT_ID":43437,"ELEMENT_SET_NO":999,"REV_AT_EPOCH":41063,"BSTAR":7.5245174e-5,"MEAN_MOTION_DOT":1.38e-6,"MEAN_MOTION_DDOT":0},{"OBJECT_NAME":"GAOFEN-5 01","OBJECT_ID":"2018-043A","EPOCH":"2026-03-14T12:32:11.122080","MEAN_MOTION":14.60529694,"ECCENTRICITY":0.00024447,"INCLINATION":98.4472,"RA_OF_ASC_NODE":43.176,"ARG_OF_PERICENTER":43.3314,"MEAN_ANOMALY":316.8077,"EPHEMERIS_TYPE":0,"CLASSIFICATION_TYPE":"U","NORAD_CAT_ID":43461,"ELEMENT_SET_NO":999,"REV_AT_EPOCH":41787,"BSTAR":0.00012586386,"MEAN_MOTION_DOT":5.62e-6,"MEAN_MOTION_DDOT":0},{"OBJECT_NAME":"GAOFEN-6","OBJECT_ID":"2018-048A","EPOCH":"2026-03-14T14:34:36.279840","MEAN_MOTION":14.7660661,"ECCENTRICITY":0.00134282,"INCLINATION":97.7864,"RA_OF_ASC_NODE":139.7144,"ARG_OF_PERICENTER":119.9583,"MEAN_ANOMALY":240.2962,"EPHEMERIS_TYPE":0,"CLASSIFICATION_TYPE":"U","NORAD_CAT_ID":43484,"ELEMENT_SET_NO":999,"REV_AT_EPOCH":41943,"BSTAR":0.00016874323,"MEAN_MOTION_DOT":1.131e-5,"MEAN_MOTION_DDOT":0},{"OBJECT_NAME":"GAOFEN-11 01","OBJECT_ID":"2018-063A","EPOCH":"2026-03-14T15:19:17.573376","MEAN_MOTION":15.52446316,"ECCENTRICITY":0.00030693,"INCLINATION":97.1405,"RA_OF_ASC_NODE":140.9309,"ARG_OF_PERICENTER":345.2037,"MEAN_ANOMALY":14.9126,"EPHEMERIS_TYPE":0,"CLASSIFICATION_TYPE":"U","NORAD_CAT_ID":43585,"ELEMENT_SET_NO":999,"REV_AT_EPOCH":42566,"BSTAR":0.00036351713,"MEAN_MOTION_DOT":0.00022159,"MEAN_MOTION_DDOT":0},{"OBJECT_NAME":"ICESAT-2","OBJECT_ID":"2018-070A","EPOCH":"2026-03-14T14:28:42.766464","MEAN_MOTION":15.28249142,"ECCENTRICITY":0.00039871,"INCLINATION":91.9991,"RA_OF_ASC_NODE":265.4908,"ARG_OF_PERICENTER":110.6179,"MEAN_ANOMALY":249.5498,"EPHEMERIS_TYPE":0,"CLASSIFICATION_TYPE":"U","NORAD_CAT_ID":43613,"ELEMENT_SET_NO":999,"REV_AT_EPOCH":41801,"BSTAR":0.00015342843,"MEAN_MOTION_DOT":4.223e-5,"MEAN_MOTION_DDOT":0},{"OBJECT_NAME":"HYSIS","OBJECT_ID":"2018-096A","EPOCH":"2026-03-14T14:36:09.279936","MEAN_MOTION":14.78672689,"ECCENTRICITY":0.00018347,"INCLINATION":97.9933,"RA_OF_ASC_NODE":141.0596,"ARG_OF_PERICENTER":94.9623,"MEAN_ANOMALY":265.1797,"EPHEMERIS_TYPE":0,"CLASSIFICATION_TYPE":"U","NORAD_CAT_ID":43719,"ELEMENT_SET_NO":999,"REV_AT_EPOCH":39344,"BSTAR":0.00021555083,"MEAN_MOTION_DOT":1.528e-5,"MEAN_MOTION_DDOT":0},{"OBJECT_NAME":"KAZSTSAT","OBJECT_ID":"2018-099AB","EPOCH":"2026-03-14T13:21:30.850848","MEAN_MOTION":14.99636077,"ECCENTRICITY":0.00058628,"INCLINATION":97.4386,"RA_OF_ASC_NODE":109.731,"ARG_OF_PERICENTER":355.8548,"MEAN_ANOMALY":4.2626,"EPHEMERIS_TYPE":0,"CLASSIFICATION_TYPE":"U","NORAD_CAT_ID":43783,"ELEMENT_SET_NO":999,"REV_AT_EPOCH":39712,"BSTAR":0.00012235835,"MEAN_MOTION_DOT":1.452e-5,"MEAN_MOTION_DDOT":0},{"OBJECT_NAME":"SAUDISAT 5A","OBJECT_ID":"2018-102A","EPOCH":"2026-03-14T15:19:55.075296","MEAN_MOTION":15.27010816,"ECCENTRICITY":0.00115167,"INCLINATION":97.3184,"RA_OF_ASC_NODE":137.0609,"ARG_OF_PERICENTER":107.5652,"MEAN_ANOMALY":252.6846,"EPHEMERIS_TYPE":0,"CLASSIFICATION_TYPE":"U","NORAD_CAT_ID":43831,"ELEMENT_SET_NO":999,"REV_AT_EPOCH":40124,"BSTAR":0.00031897614,"MEAN_MOTION_DOT":8.4e-5,"MEAN_MOTION_DDOT":0},{"OBJECT_NAME":"SAUDISAT 5B","OBJECT_ID":"2018-102C","EPOCH":"2026-03-14T14:37:51.264768","MEAN_MOTION":15.27315765,"ECCENTRICITY":0.0012221,"INCLINATION":97.3281,"RA_OF_ASC_NODE":139.9328,"ARG_OF_PERICENTER":109.7271,"MEAN_ANOMALY":250.5288,"EPHEMERIS_TYPE":0,"CLASSIFICATION_TYPE":"U","NORAD_CAT_ID":43833,"ELEMENT_SET_NO":999,"REV_AT_EPOCH":40135,"BSTAR":0.00030173814,"MEAN_MOTION_DOT":8.018e-5,"MEAN_MOTION_DDOT":0},{"OBJECT_NAME":"GAOFEN-10R","OBJECT_ID":"2019-066A","EPOCH":"2026-03-14T14:57:45.266976","MEAN_MOTION":14.831741,"ECCENTRICITY":0.00082875,"INCLINATION":98.0403,"RA_OF_ASC_NODE":26.5798,"ARG_OF_PERICENTER":92.9506,"MEAN_ANOMALY":267.2656,"EPHEMERIS_TYPE":0,"CLASSIFICATION_TYPE":"U","NORAD_CAT_ID":44622,"ELEMENT_SET_NO":999,"REV_AT_EPOCH":34836,"BSTAR":0.00023581018,"MEAN_MOTION_DOT":1.87e-5,"MEAN_MOTION_DDOT":0},{"OBJECT_NAME":"CARTOSAT-3","OBJECT_ID":"2019-081A","EPOCH":"2026-03-14T15:25:47.727264","MEAN_MOTION":15.19230751,"ECCENTRICITY":0.00133209,"INCLINATION":97.4418,"RA_OF_ASC_NODE":136.9792,"ARG_OF_PERICENTER":121.8928,"MEAN_ANOMALY":238.3604,"EPHEMERIS_TYPE":0,"CLASSIFICATION_TYPE":"U","NORAD_CAT_ID":44804,"ELEMENT_SET_NO":999,"REV_AT_EPOCH":34911,"BSTAR":0.00039731895,"MEAN_MOTION_DOT":8.323e-5,"MEAN_MOTION_DDOT":0},{"OBJECT_NAME":"GAOFEN-12 01","OBJECT_ID":"2019-082A","EPOCH":"2026-03-14T14:08:28.355712","MEAN_MOTION":14.80372276,"ECCENTRICITY":0.00015573,"INCLINATION":97.8139,"RA_OF_ASC_NODE":82.4585,"ARG_OF_PERICENTER":53.5492,"MEAN_ANOMALY":306.5864,"EPHEMERIS_TYPE":0,"CLASSIFICATION_TYPE":"U","NORAD_CAT_ID":44819,"ELEMENT_SET_NO":999,"REV_AT_EPOCH":34009,"BSTAR":8.7249969e-5,"MEAN_MOTION_DOT":6.15e-6,"MEAN_MOTION_DDOT":0},{"OBJECT_NAME":"CSG-1","OBJECT_ID":"2019-092A","EPOCH":"2026-03-14T14:29:54.998592","MEAN_MOTION":14.82156489,"ECCENTRICITY":0.00013807,"INCLINATION":97.887,"RA_OF_ASC_NODE":258.5709,"ARG_OF_PERICENTER":85.3334,"MEAN_ANOMALY":274.8037,"EPHEMERIS_TYPE":0,"CLASSIFICATION_TYPE":"U","NORAD_CAT_ID":44873,"ELEMENT_SET_NO":999,"REV_AT_EPOCH":33746,"BSTAR":9.6497543e-5,"MEAN_MOTION_DOT":7.16e-6,"MEAN_MOTION_DDOT":0},{"OBJECT_NAME":"NEMO-HD","OBJECT_ID":"2020-061F","EPOCH":"2026-03-14T14:45:24.012000","MEAN_MOTION":15.42630255,"ECCENTRICITY":0.0002166,"INCLINATION":97.204,"RA_OF_ASC_NODE":136.6058,"ARG_OF_PERICENTER":73.3234,"MEAN_ANOMALY":286.8252,"EPHEMERIS_TYPE":0,"CLASSIFICATION_TYPE":"U","NORAD_CAT_ID":46277,"ELEMENT_SET_NO":999,"REV_AT_EPOCH":30739,"BSTAR":0.00033175184,"MEAN_MOTION_DOT":0.00014366,"MEAN_MOTION_DDOT":0}]
